export const MOCK = {
  RKSI: {
    station: "RKSI",
    metar: "RKSI 080900Z 27012G22KT 8000 -RA SCT020 BKN035 06/04 Q1007 NOSIG",
    taf:   "TAF RKSI 080800Z 0809/0915 26010KT 8000 -RA BKN020 TEMPO 0810/0814 4000 RA BR BKN012 FM090000 29015G25KT 9999 SCT025 BKN040"
  },
  RKPK: {
    station: "RKPK",
    metar: "RKPK 080900Z 02008KT 9999 FEW015 SCT030 08/03 Q1012 NOSIG",
    taf:   "TAF RKPK 080800Z 0809/0915 03008KT 9999 SCT020 BECMG 0812/0814 36012KT SCT025"
  },
  RPLL: {
    station: "RPLL",
    metar: "RPLL 080900Z 04010KT 6000 HZ SCT018 BKN080 30/23 Q1010 NOSIG",
    taf:   "TAF RPLL 080800Z 0809/0915 06010KT 6000 HZ SCT018 BKN080 TEMPO 0810/0813 4000 TSRA BKN015CB"
  },
  RJTT: {
    station: "RJTT",
    metar: "RJTT 080900Z 31014KT 9999 FEW020 SCT045 05/00 Q1018 NOSIG",
    taf:   "TAF RJTT 080800Z 0809/0915 32012KT 9999 SCT025 BKN050 TEMPO 0810/0812 5000 -SHRA"
  }
};
